0 IRIDIUM 33 DEB
1 33868U 97051AM  13282.00168993  .00016843  00000-0  38495-2 0  4529
2 33868 086.3375 107.7046 0007266 125.3811 357.0171 14.55610945245543
0 IRIDIUM 33 DEB
1 33868U 97051AM  13283.03220887  .00014326  00000-0  32725-2 0  4539
2 33868 086.3377 107.2517 0007326 122.7754 356.3288 14.55640584245696
0 IRIDIUM 33 DEB
1 33868U 97051AM  13286.12429583  .00012718  00000-0  29010-2 0  4554
2 33868 086.3369 105.8916 0007453 114.7145 357.8216 14.55709321246143
0 IRIDIUM 33 DEB
1 33868U 97051AM  13287.48900409  .00014135  00000-0  32223-2 0  4561
2 33868 086.3366 105.2914 0007488 111.1778 308.6584 14.55737205246349
0 IRIDIUM 33 DEB
1 33868U 97051AM  13288.51872512  .00020098  00000-0  45757-2 0  4571
2 33868 086.3364 104.8384 0007441 108.3047 304.5436 14.55775777246492
0 IRIDIUM 33 DEB
1 33868U 97051AM  13289.70163787  .00020049  00000-0  45616-2 0  4581
2 33868 086.3363 104.3181 0007437 105.0584 023.2823 14.55805729246661
0 IRIDIUM 33 DEB
1 33868U 97051AM  13290.73266556  .00019710  00000-0  44818-2 0  4591
2 33868 086.3365 103.8645 0007421 102.2569 026.1878 14.55836287246819
0 IRIDIUM 33 DEB
1 33868U 97051AM  13291.97716679  .00014315  00000-0  32536-2 0  4606
2 33868 086.3369 103.3169 0007496 099.0314 067.7511 14.55874052246998
0 IRIDIUM 33 DEB
1 33868U 97051AM  13292.99899227  .00015218  00000-0  34567-2 0  4610
2 33868 086.3371 102.8672 0007456 096.0551 022.8772 14.55902100247145
0 IRIDIUM 33 DEB
1 33868U 97051AM  13294.49841765  .00019626  00000-0  44527-2 0  4626
2 33868 086.3375 102.2077 0007409 091.7981 321.0614 14.55941032247369
0 IRIDIUM 33 DEB
1 33868U 97051AM  13295.95476694  .00019103  00000-0  43299-2 0  4639
2 33868 086.3380 101.5672 0007378 087.5575 033.8133 14.55987104247572
